{"type": "FeatureCollection", "features": [ {"type": "Feature", "properties": {"norad_id": 66869, "name": "STARLINK-36092", "group": "last-30-days", "lat": 31.288402792643815, "lon": -168.8282397632316, "alt_km": 388.6442850794874, "timestamp": "2025-12-24T07:45:04.933344+00:00", "meta": {"OBJECT_NAME": "STARLINK-36092", "OBJECT_ID": "2025-281X", "EPOCH": "2025-12-23T22:00:01.999584", "MEAN_MOTION": 15.60040325, "ECCENTRICITY": 0.00015475, "INCLINATION": 43.0002, "RA_OF_ASC_NODE": 54.2855, "ARG_OF_PERICENTER": 274.7715, "MEAN_ANOMALY": 92.3618, "EPHEMERIS_TYPE": 0, "CLASSIFICATION_TYPE": "U", "NORAD_CAT_ID": 66869, "ELEMENT_SET_NO": 999, "REV_AT_EPOCH": 321, "BSTAR": -0.026977905, "MEAN_MOTION_DOT": -0.01973982, "MEAN_MOTION_DDOT": 0}, "tle": {"line1": "1 66869U 25281X   25357.91668981 -.01973982  00000+0 -26978-1 0  9996", "line2": "2 66869  43.0002  54.2855 0001547 274.7715  92.3618 15.60040325  3216"}}, "geometry": {"type": "Point", "coordinates": [-168.8282397632316, 31.288402792643815]}}, {"type": "Feature", "properties": {"norad_id": 66870, "name": "STARLINK-36114", "group": "last-30-days", "lat": 30.28325824300911, "lon": -166.93194708688054, "alt_km": 388.8478835874621, "timestamp": "2025-12-24T07:45:04.933376+00:00", "meta": {"OBJECT_NAME": "STARLINK-36114", "OBJECT_ID": "2025-281Y", "EPOCH": "2025-12-23T22:00:01.999584", "MEAN_MOTION": 15.60039218, "ECCENTRICITY": 0.00017234, "INCLINATION": 43.0002, "RA_OF_ASC_NODE": 54.2805, "ARG_OF_PERICENTER": 272.4189, "MEAN_ANOMALY": 96.634, "EPHEMERIS_TYPE": 0, "CLASSIFICATION_TYPE": "U", "NORAD_CAT_ID": 66870, "ELEMENT_SET_NO": 999, "REV_AT_EPOCH": 308, "BSTAR": -0.026971221, "MEAN_MOTION_DOT": -0.01973608, "MEAN_MOTION_DDOT": 0}, "tle": {"line1": "1 66870U 25281Y   25357.91668981 -.01973608  00000+0 -26971-1 0  9996", "line2": "2 66870  43.0002  54.2805 0001723 272.4189  96.6340 15.60039218  3082"}}, "geometry": {"type": "Point", "coordinates": [-166.93194708688054, 30.28325824300911]}}, {"type": "Feature", "properties": {"norad_id": 66871, "name": "STARLINK-36095", "group": "last-30-days", "lat": 29.25076149865721, "lon": -165.07390043560102, "alt_km": 388.8863863783781, "timestamp": "2025-12-24T07:45:04.933388+00:00", "meta": {"OBJECT_NAME": "STARLINK-36095", "OBJECT_ID": "2025-281Z", "EPOCH": "2025-12-23T22:00:01.999584", "MEAN_MOTION": 15.60043234, "ECCENTRICITY": 0.00016393, "INCLINATION": 43.0003, "RA_OF_ASC_NODE": 54.2754, "ARG_OF_PERICENTER": 269.3224, "MEAN_ANOMALY": 101.645, "EPHEMERIS_TYPE": 0, "CLASSIFICATION_TYPE": "U", "NORAD_CAT_ID": 66871, "ELEMENT_SET_NO": 999, "REV_AT_EPOCH": 322, "BSTAR": -0.027024295, "MEAN_MOTION_DOT": -0.01977224, "MEAN_MOTION_DDOT": 0}, "tle": {"line1": "1 66871U 25281Z   25357.91668981 -.01977224  00000+0 -27024-1 0  9995", "line2": "2 66871  43.0003  54.2754 0001639 269.3224 101.6450 15.60043234  3226"}}, "geometry": {"type": "Point", "coordinates": [-165.07390043560102, 29.25076149865721]}}, {"type": "Feature", "properties": {"norad_id": 66872, "name": "STARLINK-36082", "group": "last-30-days", "lat": 28.192801633999384, "lon": -163.2530237356483, "alt_km": 389.1053477924779, "timestamp": "2025-12-24T07:45:04.933398+00:00", "meta": {"OBJECT_NAME": "STARLINK-36082", "OBJECT_ID": "2025-281AA", "EPOCH": "2025-12-23T22:00:01.999584", "MEAN_MOTION": 15.60040729, "ECCENTRICITY": 0.00015813, "INCLINATION": 43.0005, "RA_OF_ASC_NODE": 54.2704, "ARG_OF_PERICENTER": 275.5815, "MEAN_ANOMALY": 97.3034, "EPHEMERIS_TYPE": 0, "CLASSIFICATION_TYPE": "U", "NORAD_CAT_ID": 66872, "ELEMENT_SET_NO": 999, "REV_AT_EPOCH": 308, "BSTAR": -0.026998597, "MEAN_MOTION_DOT": -0.01975363, "MEAN_MOTION_DDOT": 0}, "tle": {"line1": "1 66872U 25281AA  25357.91668981 -.01975363  00000+0 -26999-1 0  9998", "line2": "2 66872  43.0005  54.2704 0001581 275.5815  97.3034 15.60040729  3084"}}, "geometry": {"type": "Point", "coordinates": [-163.2530237356483, 28.192801633999384]}}, {"type": "Feature", "properties": {"norad_id": 66873, "name": "STARLINK-36128", "group": "last-30-days", "lat": 24.88262429493354, "lon": -158.00307580969437, "alt_km": 389.5141970863624, "timestamp": "2025-12-24T07:45:04.933408+00:00", "meta": {"OBJECT_NAME": "STARLINK-36128", "OBJECT_ID": "2025-281AB", "EPOCH": "2025-12-23T22:00:01.999584", "MEAN_MOTION": 15.60038611, "ECCENTRICITY": 0.00017229, "INCLINATION": 43.0003, "RA_OF_ASC_NODE": 54.2549, "ARG_OF_PERICENTER": 270.6349, "MEAN_ANOMALY": 108.002, "EPHEMERIS_TYPE": 0, "CLASSIFICATION_TYPE": "U", "NORAD_CAT_ID": 66873, "ELEMENT_SET_NO": 999, "REV_AT_EPOCH": 322, "BSTAR": -0.02687633, "MEAN_MOTION_DOT": -0.01967469, "MEAN_MOTION_DDOT": 0}, "tle": {"line1": "1 66873U 25281AB  25357.91668981 -.01967469  00000+0 -26876-1 0  9991", "line2": "2 66873  43.0003  54.2549 0001722 270.6349 108.0020 15.60038611  3223"}}, "geometry": {"type": "Point", "coordinates": [-158.00307580969437, 24.88262429493354]}}, {"type": "Feature", "properties": {"norad_id": 66874, "name": "STARLINK-36129", "group": "last-30-days", "lat": 27.11126168503221, "lon": -161.4685731187814, "alt_km": 389.218606200423, "timestamp": "2025-12-24T07:45:04.933420+00:00", "meta": {"OBJECT_NAME": "STARLINK-36129", "OBJECT_ID": "2025-281AC", "EPOCH": "2025-12-23T22:00:01.999584", "MEAN_MOTION": 15.60040171, "ECCENTRICITY": 0.00017021, "INCLINATION": 43.0006, "RA_OF_ASC_NODE": 54.2656, "ARG_OF_PERICENTER": 270.7414, "MEAN_ANOMALY": 104.0607, "EPHEMERIS_TYPE": 0, "CLASSIFICATION_TYPE": "U", "NORAD_CAT_ID": 66874, "ELEMENT_SET_NO": 999, "REV_AT_EPOCH": 322, "BSTAR": -0.026925734, "MEAN_MOTION_DOT": -0.01970734, "MEAN_MOTION_DDOT": 0}, "tle": {"line1": "1 66874U 25281AC  25357.91668981 -.01970734  00000+0 -26926-1 0  9997", "line2": "2 66874  43.0006  54.2656 0001702 270.7414 104.0607 15.60040171  3229"}}, "geometry": {"type": "Point", "coordinates": [-161.4685731187814, 27.11126168503221]}}, {"type": "Feature", "properties": {"norad_id": 66875, "name": "STARLINK-36053", "group": "last-30-days", "lat": 23.73791757880196, "lon": -156.31690231965422, "alt_km": 389.7180045759442, "timestamp": "2025-12-24T07:45:04.933431+00:00", "meta": {"OBJECT_NAME": "STARLINK-36053", "OBJECT_ID": "2025-281AD", "EPOCH": "2025-12-23T22:00:01.999584", "MEAN_MOTION": 15.6003368, "ECCENTRICITY": 0.00015575, "INCLINATION": 43.0004, "RA_OF_ASC_NODE": 54.2496, "ARG_OF_PERICENTER": 277.6719, "MEAN_ANOMALY": 102.8835, "EPHEMERIS_TYPE": 0, "CLASSIFICATION_TYPE": "U", "NORAD_CAT_ID": 66875, "ELEMENT_SET_NO": 999, "REV_AT_EPOCH": 322, "BSTAR": -0.026798983, "MEAN_MOTION_DOT": -0.01962044, "MEAN_MOTION_DDOT": 0}, "tle": {"line1": "1 66875U 25281AD  25357.91668981 -.01962044  00000+0 -26799-1 0  9991", "line2": "2 66875  43.0004  54.2496 0001557 277.6719 102.8835 15.60033680  3228"}}, "geometry": {"type": "Point", "coordinates": [-156.31690231965422, 23.73791757880196]}}, {"type": "Feature", "properties": {"norad_id": 66876, "name": "STARLINK-35702", "group": "last-30-days", "lat": 26.006532475950085, "lon": -159.71794872506123, "alt_km": 389.42335549467043, "timestamp": "2025-12-24T07:45:04.933440+00:00", "meta": {"OBJECT_NAME": "STARLINK-35702", "OBJECT_ID": "2025-281AE", "EPOCH": "2025-12-23T22:00:01.999584", "MEAN_MOTION": 15.60035033, "ECCENTRICITY": 0.0001602, "INCLINATION": 43.0006, "RA_OF_ASC_NODE": 54.2602, "ARG_OF_PERICENTER": 277.2156, "MEAN_ANOMALY": 99.5044, "EPHEMERIS_TYPE": 0, "CLASSIFICATION_TYPE": "U", "NORAD_CAT_ID": 66876, "ELEMENT_SET_NO": 999, "REV_AT_EPOCH": 322, "BSTAR": -0.026813376, "MEAN_MOTION_DOT": -0.01963093, "MEAN_MOTION_DDOT": 0}, "tle": {"line1": "1 66876U 25281AE  25357.91668981 -.01963093  00000+0 -26813-1 0  9994", "line2": "2 66876  43.0006  54.2602 0001602 277.2156  99.5044 15.60035033  3220"}}, "geometry": {"type": "Point", "coordinates": [-159.71794872506123, 26.006532475950085]}}, {"type": "Feature", "properties": {"norad_id": 66877, "name": "ZQ-3 R/B", "group": "last-30-days", "lat": 44.07346205109417, "lon": 153.45614936837256, "alt_km": 799.4347400598917, "timestamp": "2025-12-24T07:45:04.933451+00:00", "meta": {"OBJECT_NAME": "ZQ-3 R/B", "OBJECT_ID": "2025-282A", "EPOCH": "2025-12-23T18:11:12.742368", "MEAN_MOTION": 14.82080967, "ECCENTRICITY": 0.06855559, "INCLINATION": 56.9493, "RA_OF_ASC_NODE": 14.7741, "ARG_OF_PERICENTER": 239.3958, "MEAN_ANOMALY": 113.7744, "EPHEMERIS_TYPE": 0, "CLASSIFICATION_TYPE": "U", "NORAD_CAT_ID": 66877, "ELEMENT_SET_NO": 999, "REV_AT_EPOCH": 301, "BSTAR": 0.00018878602, "MEAN_MOTION_DOT": 0.01092378, "MEAN_MOTION_DDOT": 7.875389e-06}, "tle": {"line1": "1 66877U 25282A   25357.75778637  .01092378  78754-5  18879-3 0  9997", "line2": "2 66877  56.9493  14.7741 0685555 239.3958 113.7744 14.82080967  3015"}}, "geometry": {"type": "Point", "coordinates": [153.45614936837256, 44.07346205109417]}}, {"type": "Feature", "properties": {"norad_id": 66878, "name": "STARLINK-35866", "group": "last-30-days", "lat": -48.4770334634621, "lon": -106.1460804260028, "alt_km": 376.30306723837475, "timestamp": "2025-12-24T07:45:04.933461+00:00", "meta": {"OBJECT_NAME": "STARLINK-35866", "OBJECT_ID": "2025-283A", "EPOCH": "2025-12-23T22:00:01.999584", "MEAN_MOTION": 15.67563403, "ECCENTRICITY": 0.00013661, "INCLINATION": 53.1589, "RA_OF_ASC_NODE": 17.987, "ARG_OF_PERICENTER": 78.9659, "MEAN_ANOMALY": 37.5178, "EPHEMERIS_TYPE": 0, "CLASSIFICATION_TYPE": "U", "NORAD_CAT_ID": 66878, "ELEMENT_SET_NO": 999, "REV_AT_EPOCH": 422, "BSTAR": -0.019485011, "MEAN_MOTION_DOT": -0.01915301, "MEAN_MOTION_DDOT": 0}, "tle": {"line1": "1 66878U 25283A   25357.91668981 -.01915301  00000+0 -19485-1 0  9994", "line2": "2 66878  53.1589  17.9870 0001366  78.9659  37.5178 15.67563403  4229"}}, "geometry": {"type": "Point", "coordinates": [-106.1460804260028, -48.4770334634621]}}]}